[{"OBJECT_NAME":"STARLINK-32635","OBJECT_ID":"2024-224S","EPOCH":"2026-03-09T07:20:14.951904","MEAN_MOTION":15.27584108,"ECCENTRICITY":4.315e-5,"INCLINATION":42.9992,"RA_OF_ASC_NODE":167.849,"ARG_OF_PERICENTER":242.1694,"MEAN_ANOMALY":117.9114,"EPHEMERIS_TYPE":0,"CLASSIFICATION_TYPE":"U","NORAD_CAT_ID":62155,"ELEMENT_SET_NO":999,"REV_AT_EPOCH":7217,"BSTAR":0.00091923903,"MEAN_MOTION_DOT":0.00025123,"MEAN_MOTION_DDOT":0},{"OBJECT_NAME":"CZ-6A DEB","OBJECT_ID":"2022-151SD","EPOCH":"2026-03-09T21:25:15.700512","MEAN_MOTION":15.24469357,"ECCENTRICITY":0.00248717,"INCLINATION":98.6538,"RA_OF_ASC_NODE":157.5128,"ARG_OF_PERICENTER":174.047,"MEAN_ANOMALY":186.1065,"EPHEMERIS_TYPE":0,"CLASSIFICATION_TYPE":"U","NORAD_CAT_ID":54940,"ELEMENT_SET_NO":999,"REV_AT_EPOCH":17680,"BSTAR":0.0087519903,"MEAN_MOTION_DOT":0.00223015,"MEAN_MOTION_DDOT":0}]
